OBJECT_NAME,OBJECT_ID,EPOCH,MEAN_MOTION,ECCENTRICITY,INCLINATION,RA_OF_ASC_NODE,ARG_OF_PERICENTER,MEAN_ANOMALY,EPHEMERIS_TYPE,CLASSIFICATION_TYPE,NORAD_CAT_ID,ELEMENT_SET_NO,REV_AT_EPOCH,BSTAR,MEAN_MOTION_DOT,MEAN_MOTION_DDOT
ONEWEB-0667,2023-029AH,2026-07-21T04:39:16.308864,13.20770307,.00019106,87.9194,267.6575,104.8323,255.3023,0,U,55827,999,16563,.10369047E-3,.55E-6,0
ONEWEB-0669,2023-029AJ,2026-07-21T04:32:00.479616,13.20769877,.00015343,87.9179,267.6654,89.4376,270.6933,0,U,55828,999,16563,.74508616E-4,.43E-6,0
ONEWEB-0670,2023-029AK,2026-07-21T11:10:02.369280,13.14502074,.0001752,87.8953,282.9082,109.1621,250.9699,0,U,55829,999,16393,.48938659E-4,.31E-6,0
ONEWEB-0671,2023-029AL,2026-07-21T13:26:36.305088,13.19724638,.00019816,87.9184,298.1312,103.6535,256.4819,0,U,55830,999,16343,-.21833383E-4,.4E-7,0
ONEWEB-0672,2023-029AM,2026-07-21T09:52:00.914880,13.20771636,.00019748,87.9178,267.6150,90.6133,269.5226,0,U,55831,999,16566,-.12857506E-3,-.39E-6,0
ONEWEB-0673,2023-029AN,2026-07-21T12:53:37.460832,13.19725615,.00019727,87.9189,298.1298,104.1145,256.0207,0,U,55832,999,16343,.12716829E-3,.64E-6,0
ONEWEB-0674,2023-029AP,2026-07-21T06:45:08.377344,13.14501808,.00016664,87.8957,282.9221,106.9742,253.1570,0,U,55833,999,16389,.54430114E-3,.215E-5,0
ONEWEB-0675,2023-029AQ,2026-07-21T13:15:14.769792,13.19725345,.00022024,87.9184,298.1346,95.1219,265.0166,0,U,55834,999,16345,.10677258E-3,.56E-6,0
ONEWEB-0720,2023-029AR,2026-07-21T13:03:51.546240,13.19726630,.00022411,87.9182,298.1358,106.5587,253.5792,0,U,55835,999,16337,.27940194E-3,.125E-5,0
ONEWEB-0537,2023-043A,2026-07-21T02:08:31.056576,13.16593924,.00021331,87.9078,222.0370,87.4333,272.7042,0,U,56046,999,16342,-.1202796E-3,-.33E-6,0
ONEWEB-0538,2023-043B,2026-07-21T01:59:23.581248,13.16594349,.00023421,87.9081,222.0412,91.5764,268.5635,0,U,56047,999,16343,-.15727708E-3,-.47E-6,0
ONEWEB-0546,2023-043C,2026-07-21T07:09:27.760608,13.16593760,.00021468,87.9084,221.9987,73.6123,286.5244,0,U,56048,999,16345,-.20625222E-3,-.66E-6,0
ONEWEB-0547,2023-043D,2026-07-21T12:55:34.250304,13.21824221,.00022166,87.9233,237.1381,97.5088,262.6298,0,U,56049,999,16276,-.7665144E-5,.1E-6,0
ONEWEB-0548,2023-043E,2026-07-21T02:16:28.360416,13.16595149,.00016052,87.9076,222.0342,95.5477,264.5837,0,U,56050,999,16342,-.19860163E-4,.5E-7,0
ONEWEB-0549,2023-043F,2026-07-21T14:36:05.972544,13.21824035,.00024654,87.9228,237.1288,93.9085,266.2331,0,U,56051,999,16277,-.18485773E-4,.5E-7,0
ONEWEB-0550,2023-043G,2026-07-21T12:27:43.536096,13.21827262,.00018718,87.9230,237.1451,99.0960,261.0385,0,U,56052,999,16276,.12452262E-3,.64E-6,0
ONEWEB-0551,2023-043H,2026-07-21T03:40:07.858272,13.15547864,.00023643,87.8982,252.4582,98.6686,261.4713,0,U,56053,999,16086,.94210505E-4,.48E-6,0
ONEWEB-0552,2023-043J,2026-07-21T03:15:25.927200,13.21826400,.00021328,87.9228,237.2261,100.9647,259.1727,0,U,56054,999,16271,.69033753E-4,.42E-6,0
ONEWEB-0553,2023-043K,2026-07-21T01:50:16.383264,13.16594522,.00019487,87.9081,222.0421,82.0236,278.1116,0,U,56055,999,16343,-.1339866E-3,-.38E-6,0
ONEWEB-0554,2023-043L,2026-07-21T12:28:39.072288,13.16594349,.00015702,87.9077,221.9626,98.2562,261.8747,0,U,56056,999,16347,.610845E-5,.15E-6,0
ONEWEB-0555,2023-043M,2026-07-21T11:33:55.445472,13.16594021,.00020001,87.9076,221.9594,76.0407,284.0946,0,U,56057,999,16347,-.2774654E-4,.2E-7,0
ONEWEB-0557,2023-043N,2026-07-21T11:54:26.632512,13.16594392,.0000947,87.9075,221.9663,63.9718,296.1510,0,U,56058,999,16347,.6311738E-4,.37E-6,0
ONEWEB-0558,2023-043P,2026-07-21T03:05:45.352896,13.21825754,.00023939,87.9229,237.2231,92.6953,267.4455,0,U,56059,999,16272,-.9952894E-5,.9E-7,0
ONEWEB-0559,2023-043Q,2026-07-21T02:48:48.582144,13.21824791,.00022842,87.9232,237.2213,98.4117,261.7276,0,U,56060,999,16273,.17073255E-3,.84E-6,0
ONEWEB-0566,2023-043R,2026-07-21T02:39:07.358976,13.21824341,.00023427,87.9231,237.2201,98.9779,261.1620,0,U,56061,999,16271,-.16913086E-4,.6E-7,0
ONEWEB-0568,2023-043S,2026-07-21T01:22:53.860512,13.16596197,.00020469,87.9078,222.0427,85.1051,275.0314,0,U,56062,999,16343,.10861664E-3,.54E-6,0
ONEWEB-0574,2023-043T,2026-07-21T04:18:26.646912,13.21825590,.00018539,87.9236,237.2116,93.9221,266.2125,0,U,56063,999,16276,-.26028508E-3,-.94E-6,0
ONEWEB-0575,2023-043U,2026-07-21T12:10:23.192832,13.16595661,.00016495,87.9076,221.9497,86.4488,273.6832,0,U,56064,999,16348,.23971366E-3,.104E-5,0
ONEWEB-0576,2023-043V,2026-07-21T11:43:01.103808,13.16595861,.00018139,87.9078,221.9624,89.9784,270.1555,0,U,56065,999,16347,-.30550955E-4,.1E-7,0
ONEWEB-0577,2023-043W,2026-07-21T02:44:58.346880,13.16595699,.0001273,87.9078,222.0341,91.4390,268.6887,0,U,56066,999,16345,.28322212E-3,.121E-5,0
